{
	"type": "FeatureCollection",
	"features": [
		{
			"type": "Feature",
			"geometry": {
				"type": "MultiLineString",
				"coordinates": [[[-94.68914, 38.80168, 302.0], [-94.68911, 38.8017, 302.0], [-94.68906, 38.80171, 302.0], [-94.68902, 38.80172, 302.0], [-94.68897, 38.80173, 303.0], [-94.68893, 38.80175, 303.0], [-94.6889, 38.80176, 303.0], [-94.68887, 38.80178, 303.0], [-94.68883, 38.8018, 303.0], [-94.6888, 38.80182, 303.0], [-94.68875, 38.80183, 303.0], [-94.68872, 38.80184, 303.0], [-94.68867, 38.80185, 303.0], [-94.68863, 38.80186, 303.0], [-94.68858, 38.80188, 303.0], [-94.68854, 38.80188, 303.0], [-94.68849, 38.80189, 303.0], [-94.68843, 38.80188, 303.0], [-94.6884, 38.80188, 303.0], [-94.68836, 38.80187, 303.0], [-94.68832, 38.80187, 303.0], [-94.68829, 38.80186, 303.0], [-94.68825, 38.80186, 303.0], [-94.6882, 38.80185, 303.0], [-94.68815, 38.80185, 304.0], [-94.6881, 38.80185, 304.0], [-94.68806, 38.80185, 304.0], [-94.68802, 38.80185, 304.0], [-94.68797, 38.80185, 305.0], [-94.68793, 38.80185, 305.0], [-94.68789, 38.80185, 305.0], [-94.68786, 38.80185, 306.0], [-94.68781, 38.80184, 306.0], [-94.68778, 38.80183, 306.0], [-94.68776, 38.80181, 306.0], [-94.68773, 38.80178, 306.0], [-94.68771, 38.80174, 306.0], [-94.68769, 38.80171, 306.0], [-94.68768, 38.80168, 306.0], [-94.68767, 38.80166, 306.0], [-94.68765, 38.80163, 306.0], [-94.68763, 38.8016, 305.0], [-94.68761, 38.80156, 305.0], [-94.68758, 38.80153, 304.0], [-94.68756, 38.8015, 304.0], [-94.68753, 38.80146, 303.0], [-94.68751, 38.80143, 303.0], [-94.68749, 38.80139, 302.0], [-94.68747, 38.80136, 302.0], [-94.68744, 38.80133, 302.0], [-94.68741, 38.8013, 302.0], [-94.68739, 38.80128, 301.0], [-94.68735, 38.80125, 301.0], [-94.68731, 38.80123, 301.0], [-94.68727, 38.80121, 300.0], [-94.68722, 38.80119, 300.0], [-94.68719, 38.80116, 299.0], [-94.68716, 38.80113, 299.0], [-94.68716, 38.80109, 299.0], [-94.68717, 38.80106, 299.0], [-94.68718, 38.80103, 299.0], [-94.68719, 38.801, 298.0], [-94.6872, 38.80097, 298.0], [-94.68721, 38.80094, 298.0], [-94.68722, 38.80091, 298.0], [-94.68723, 38.80088, 298.0], [-94.68723, 38.80085, 298.0], [-94.68724, 38.80082, 297.0], [-94.68725, 38.80079, 297.0], [-94.68726, 38.80075, 296.0], [-94.68727, 38.80072, 296.0], [-94.6873, 38.80069, 296.0], [-94.68733, 38.80065, 296.0], [-94.68736, 38.80064, 296.0], [-94.68739, 38.80062, 296.0], [-94.68743, 38.8006, 296.0], [-94.68746, 38.80058, 296.0], [-94.68749, 38.80057, 297.0], [-94.68753, 38.80056, 297.0], [-94.68757, 38.80054, 297.0], [-94.6876, 38.80053, 297.0], [-94.68765, 38.80052, 298.0], [-94.68769, 38.80051, 298.0], [-94.68772, 38.8005, 298.0], [-94.68776, 38.80049, 299.0], [-94.6878, 38.80048, 299.0], [-94.68783, 38.80047, 299.0], [-94.68787, 38.80046, 299.0], [-94.68791, 38.80045, 300.0], [-94.68795, 38.80044, 300.0], [-94.68799, 38.80043, 300.0], [-94.68802, 38.80042, 300.0], [-94.68807, 38.80041, 300.0], [-94.68811, 38.8004, 300.0], [-94.68816, 38.8004, 300.0], [-94.68821, 38.80039, 300.0], [-94.68826, 38.80038, 300.0], [-94.6883, 38.80037, 300.0], [-94.68834, 38.80037, 300.0], [-94.68839, 38.80036, 300.0], [-94.68843, 38.80036, 300.0], [-94.68847, 38.80035, 300.0], [-94.68851, 38.80034, 300.0], [-94.68854, 38.80033, 300.0], [-94.68858, 38.80033, 300.0], [-94.68863, 38.80033, 300.0], [-94.68867, 38.80032, 300.0], [-94.68871, 38.80032, 300.0], [-94.68876, 38.80031, 300.0], [-94.68881, 38.8003, 300.0], [-94.68884, 38.80029, 300.0], [-94.68888, 38.80028, 300.0], [-94.68891, 38.80027, 299.0], [-94.68895, 38.80026, 299.0], [-94.68899, 38.80025, 300.0], [-94.68903, 38.80025, 300.0], [-94.68906, 38.80026, 300.0], [-94.68911, 38.80027, 300.0], [-94.68914, 38.80028, 300.0], [-94.68918, 38.8003, 301.0], [-94.68921, 38.80032, 301.0], [-94.68924, 38.80033, 301.0], [-94.68928, 38.80035, 301.0], [-94.68931, 38.80036, 301.0], [-94.68934, 38.80037, 301.0], [-94.68937, 38.80038, 301.0], [-94.68941, 38.80039, 301.0], [-94.68944, 38.8004, 301.0], [-94.68947, 38.80041, 301.0], [-94.68952, 38.80043, 301.0], [-94.68955, 38.80045, 301.0], [-94.68958, 38.80047, 302.0], [-94.68961, 38.80048, 302.0], [-94.68964, 38.8005, 302.0], [-94.68966, 38.80052, 302.0], [-94.68968, 38.80055, 302.0], [-94.68969, 38.80058, 302.0], [-94.6897, 38.80061, 302.0], [-94.68969, 38.80064, 302.0], [-94.68968, 38.80067, 302.0], [-94.68967, 38.80069, 302.0], [-94.68966, 38.80072, 302.0], [-94.68965, 38.80075, 302.0], [-94.68965, 38.80078, 302.0], [-94.68965, 38.80081, 302.0], [-94.68964, 38.80084, 302.0], [-94.68964, 38.80089, 302.0], [-94.68963, 38.80092, 302.0], [-94.68961, 38.80095, 302.0], [-94.6896, 38.80097, 302.0], [-94.68958, 38.801, 302.0], [-94.68957, 38.80103, 302.0], [-94.68955, 38.80105, 301.0], [-94.68952, 38.80108, 301.0], [-94.6895, 38.80111, 301.0], [-94.68948, 38.80113, 301.0], [-94.68946, 38.80116, 301.0], [-94.68943, 38.80118, 301.0], [-94.68941, 38.80121, 301.0], [-94.68939, 38.80123, 301.0], [-94.68936, 38.80126, 301.0], [-94.68934, 38.80129, 301.0], [-94.68933, 38.80132, 301.0], [-94.68933, 38.80135, 301.0], [-94.68932, 38.80139, 300.0], [-94.68932, 38.80142, 300.0], [-94.68932, 38.80145, 300.0], [-94.68932, 38.80147, 301.0], [-94.68932, 38.8015, 301.0], [-94.68931, 38.80153, 301.0], [-94.6893, 38.80157, 301.0], [-94.68927, 38.8016, 301.0], [-94.68923, 38.80163, 301.0], [-94.68919, 38.80164, 301.0], [-94.68915, 38.80167, 302.0]]],
				"bbox": [-94.68716, 38.80189, -94.6897, 38.80025]
			},
			"properties": {
				"name": "Sculpture Garden Loop",
				"desc": "Short paved trail through the heart of the Sculpture Garden.",
				"color": "indigo",
                "info": "Length: 0.4 miles. Elevation 20 feet.",
                "imageURL": null
			}
		}
	]
}
